[{"OBJECT_NAME":"STARLINK-32021","OBJECT_ID":"2024-120P","EPOCH":"2026-03-23T04:18:30.844224","MEAN_MOTION":15.30180936,"ECCENTRICITY":0.00012083,"INCLINATION":53.1592,"RA_OF_ASC_NODE":247.162,"ARG_OF_PERICENTER":104.0309,"MEAN_ANOMALY":256.0827,"EPHEMERIS_TYPE":0,"CLASSIFICATION_TYPE":"U","NORAD_CAT_ID":60148,"ELEMENT_SET_NO":999,"REV_AT_EPOCH":9866,"BSTAR":-2.789199e-6,"MEAN_MOTION_DOT":-4.42e-6,"MEAN_MOTION_DDOT":0},{"OBJECT_NAME":"STARLINK-32022","OBJECT_ID":"2024-120Q","EPOCH":"2026-03-23T04:33:35.339904","MEAN_MOTION":15.30194752,"ECCENTRICITY":9.187e-5,"INCLINATION":53.1588,"RA_OF_ASC_NODE":257.1758,"ARG_OF_PERICENTER":92.7545,"MEAN_ANOMALY":267.3561,"EPHEMERIS_TYPE":0,"CLASSIFICATION_TYPE":"U","NORAD_CAT_ID":60149,"ELEMENT_SET_NO":999,"REV_AT_EPOCH":9852,"BSTAR":-3.8770021e-5,"MEAN_MOTION_DOT":-1.507e-5,"MEAN_MOTION_DDOT":0},{"OBJECT_NAME":"STARLINK-32014","OBJECT_ID":"2024-120R","EPOCH":"2026-03-22T20:29:39.094080","MEAN_MOTION":15.30186217,"ECCENTRICITY":9.735e-5,"INCLINATION":53.1583,"RA_OF_ASC_NODE":258.6343,"ARG_OF_PERICENTER":100.2435,"MEAN_ANOMALY":259.8675,"EPHEMERIS_TYPE":0,"CLASSIFICATION_TYPE":"U","NORAD_CAT_ID":60150,"ELEMENT_SET_NO":999,"REV_AT_EPOCH":9839,"BSTAR":-4.4982378e-5,"MEAN_MOTION_DOT":-1.69e-5,"MEAN_MOTION_DDOT":0},{"OBJECT_NAME":"STARLINK-32004","OBJECT_ID":"2024-120S","EPOCH":"2026-03-23T04:24:28.795968","MEAN_MOTION":15.30194166,"ECCENTRICITY":0.00012698,"INCLINATION":53.1576,"RA_OF_ASC_NODE":257.1376,"ARG_OF_PERICENTER":105.0262,"MEAN_ANOMALY":255.088,"EPHEMERIS_TYPE":0,"CLASSIFICATION_TYPE":"U","NORAD_CAT_ID":60151,"ELEMENT_SET_NO":999,"REV_AT_EPOCH":9852,"BSTAR":5.77948e-6,"MEAN_MOTION_DOT":-1.88e-6,"MEAN_MOTION_DDOT":0},{"OBJECT_NAME":"STARLINK-32147","OBJECT_ID":"2024-120T","EPOCH":"2026-03-23T05:16:07.917312","MEAN_MOTION":15.30196006,"ECCENTRICITY":9.011e-5,"INCLINATION":53.1598,"RA_OF_ASC_NODE":257.3637,"ARG_OF_PERICENTER":86.0082,"MEAN_ANOMALY":274.1021,"EPHEMERIS_TYPE":0,"CLASSIFICATION_TYPE":"U","NORAD_CAT_ID":60152,"ELEMENT_SET_NO":999,"REV_AT_EPOCH":9844,"BSTAR":-4.622e-6,"MEAN_MOTION_DOT":-4.96e-6,"MEAN_MOTION_DDOT":0},{"OBJECT_NAME":"STARLINK-32131","OBJECT_ID":"2024-120U","EPOCH":"2026-03-23T04:51:48.964320","MEAN_MOTION":15.30211855,"ECCENTRICITY":0.00010346,"INCLINATION":53.1594,"RA_OF_ASC_NODE":257.2556,"ARG_OF_PERICENTER":97.3164,"MEAN_ANOMALY":262.7955,"EPHEMERIS_TYPE":0,"CLASSIFICATION_TYPE":"U","NORAD_CAT_ID":60153,"ELEMENT_SET_NO":999,"REV_AT_EPOCH":9852,"BSTAR":-3.62866e-5,"MEAN_MOTION_DOT":-1.434e-5,"MEAN_MOTION_DDOT":0},{"OBJECT_NAME":"STARLINK-32145","OBJECT_ID":"2024-120V","EPOCH":"2026-03-23T04:13:50.632608","MEAN_MOTION":15.3018908,"ECCENTRICITY":0.00013475,"INCLINATION":53.1601,"RA_OF_ASC_NODE":257.0916,"ARG_OF_PERICENTER":96.5745,"MEAN_ANOMALY":263.5409,"EPHEMERIS_TYPE":0,"CLASSIFICATION_TYPE":"U","NORAD_CAT_ID":60154,"ELEMENT_SET_NO":999,"REV_AT_EPOCH":9844,"BSTAR":-2.8132965e-5,"MEAN_MOTION_DOT":-1.192e-5,"MEAN_MOTION_DDOT":0},{"OBJECT_NAME":"STARLINK-32137","OBJECT_ID":"2024-120W","EPOCH":"2026-03-23T04:38:08.966976","MEAN_MOTION":15.30201191,"ECCENTRICITY":0.00011445,"INCLINATION":53.1592,"RA_OF_ASC_NODE":257.1966,"ARG_OF_PERICENTER":78.4262,"MEAN_ANOMALY":281.6867,"EPHEMERIS_TYPE":0,"CLASSIFICATION_TYPE":"U","NORAD_CAT_ID":60155,"ELEMENT_SET_NO":999,"REV_AT_EPOCH":9844,"BSTAR":-1.762572e-5,"MEAN_MOTION_DOT":-8.81e-6,"MEAN_MOTION_DDOT":0},{"OBJECT_NAME":"STARLINK-32048","OBJECT_ID":"2024-120X","EPOCH":"2026-03-22T20:52:26.927040","MEAN_MOTION":15.30189165,"ECCENTRICITY":0.00012081,"INCLINATION":53.1597,"RA_OF_ASC_NODE":258.7341,"ARG_OF_PERICENTER":83.4046,"MEAN_ANOMALY":276.7092,"EPHEMERIS_TYPE":0,"CLASSIFICATION_TYPE":"U","NORAD_CAT_ID":60156,"ELEMENT_SET_NO":999,"REV_AT_EPOCH":9839,"BSTAR":-5.3296869e-5,"MEAN_MOTION_DOT":-1.937e-5,"MEAN_MOTION_DDOT":0},{"OBJECT_NAME":"STARLINK-32129","OBJECT_ID":"2024-120Y","EPOCH":"2026-03-22T21:35:00.447936","MEAN_MOTION":15.30180397,"ECCENTRICITY":0.00012567,"INCLINATION":53.1602,"RA_OF_ASC_NODE":258.916,"ARG_OF_PERICENTER":74.7492,"MEAN_ANOMALY":285.3648,"EPHEMERIS_TYPE":0,"CLASSIFICATION_TYPE":"U","NORAD_CAT_ID":60157,"ELEMENT_SET_NO":999,"REV_AT_EPOCH":9847,"BSTAR":-5.4998134e-5,"MEAN_MOTION_DOT":-1.987e-5,"MEAN_MOTION_DDOT":0},{"OBJECT_NAME":"STARLINK-11168 [DTC]","OBJECT_ID":"2024-124A","EPOCH":"2026-03-23T05:47:33.637920","MEAN_MOTION":15.69754611,"ECCENTRICITY":0.00022072,"INCLINATION":53.1598,"RA_OF_ASC_NODE":94.3709,"ARG_OF_PERICENTER":126.5291,"MEAN_ANOMALY":233.5931,"EPHEMERIS_TYPE":0,"CLASSIFICATION_TYPE":"U","NORAD_CAT_ID":60183,"ELEMENT_SET_NO":999,"REV_AT_EPOCH":9985,"BSTAR":2.491113e-5,"MEAN_MOTION_DOT":2.434e-5,"MEAN_MOTION_DDOT":0},{"OBJECT_NAME":"STARLINK-11187 [DTC]","OBJECT_ID":"2024-124B","EPOCH":"2026-03-23T07:12:12.972096","MEAN_MOTION":15.6969137,"ECCENTRICITY":0.00014261,"INCLINATION":53.1578,"RA_OF_ASC_NODE":94.024,"ARG_OF_PERICENTER":65.8464,"MEAN_ANOMALY":294.2703,"EPHEMERIS_TYPE":0,"CLASSIFICATION_TYPE":"U","NORAD_CAT_ID":60184,"ELEMENT_SET_NO":999,"REV_AT_EPOCH":9867,"BSTAR":-2.8687218e-5,"MEAN_MOTION_DOT":-4.06e-5,"MEAN_MOTION_DDOT":0},{"OBJECT_NAME":"STARLINK-11180 [DTC]","OBJECT_ID":"2024-124C","EPOCH":"2026-03-22T11:13:17.393952","MEAN_MOTION":15.6965625,"ECCENTRICITY":0.00010264,"INCLINATION":53.1572,"RA_OF_ASC_NODE":98.0717,"ARG_OF_PERICENTER":52.4954,"MEAN_ANOMALY":307.6158,"EPHEMERIS_TYPE":0,"CLASSIFICATION_TYPE":"U","NORAD_CAT_ID":60185,"ELEMENT_SET_NO":999,"REV_AT_EPOCH":9854,"BSTAR":-0.00012409323,"MEAN_MOTION_DOT":-0.0001556,"MEAN_MOTION_DDOT":0},{"OBJECT_NAME":"STARLINK-11197 [DTC]","OBJECT_ID":"2024-124D","EPOCH":"2026-03-23T06:58:06.583872","MEAN_MOTION":15.69758408,"ECCENTRICITY":0.00010753,"INCLINATION":53.1578,"RA_OF_ASC_NODE":93.9583,"ARG_OF_PERICENTER":91.6895,"MEAN_ANOMALY":268.4246,"EPHEMERIS_TYPE":0,"CLASSIFICATION_TYPE":"U","NORAD_CAT_ID":60186,"ELEMENT_SET_NO":999,"REV_AT_EPOCH":9867,"BSTAR":0.00043321096,"MEAN_MOTION_DOT":0.00052331,"MEAN_MOTION_DDOT":0},{"OBJECT_NAME":"STARLINK-11194 [DTC]","OBJECT_ID":"2024-124E","EPOCH":"2026-03-23T05:19:21.402336","MEAN_MOTION":15.69720805,"ECCENTRICITY":0.00011873,"INCLINATION":53.158,"RA_OF_ASC_NODE":94.239,"ARG_OF_PERICENTER":95.0275,"MEAN_ANOMALY":265.0879,"EPHEMERIS_TYPE":0,"CLASSIFICATION_TYPE":"U","NORAD_CAT_ID":60187,"ELEMENT_SET_NO":999,"REV_AT_EPOCH":9866,"BSTAR":0.00015957761,"MEAN_MOTION_DOT":0.00018796,"MEAN_MOTION_DDOT":0},{"OBJECT_NAME":"STARLINK-11189 [DTC]","OBJECT_ID":"2024-124F","EPOCH":"2026-03-23T05:12:27.363168","MEAN_MOTION":15.69712538,"ECCENTRICITY":0.00011482,"INCLINATION":53.1575,"RA_OF_ASC_NODE":94.9407,"ARG_OF_PERICENTER":69.857,"MEAN_ANOMALY":290.2572,"EPHEMERIS_TYPE":0,"CLASSIFICATION_TYPE":"U","NORAD_CAT_ID":60188,"ELEMENT_SET_NO":999,"REV_AT_EPOCH":9865,"BSTAR":0.0002346243,"MEAN_MOTION_DOT":0.00027934,"MEAN_MOTION_DDOT":0}]
