STARLINK-32021          
1 60148U 24120P   26082.17952366 -.00000442  00000+0 -27892-5 0  9999
2 60148  53.1592 247.1620 0001208 104.0309 256.0827 15.30180936 98661
STARLINK-32022          
1 60149U 24120Q   26082.18999236 -.00001507  00000+0 -38770-4 0  9997
2 60149  53.1588 257.1758 0000918  92.7545 267.3561 15.30194752 98528
STARLINK-32014          
1 60150U 24120R   26081.85392470 -.00001690  00000+0 -44982-4 0  9994
2 60150  53.1583 258.6343 0000973 100.2435 259.8675 15.30186217 98399
STARLINK-32004          
1 60151U 24120S   26082.18366662 -.00000188  00000+0  57795-5 0  9993
2 60151  53.1576 257.1376 0001269 105.0262 255.0880 15.30194166 98525
STARLINK-32147          
1 60152U 24120T   26082.21953608 -.00000496  00000+0 -46220-5 0  9994
2 60152  53.1598 257.3637 0000901  86.0082 274.1021 15.30196006 98447
STARLINK-32131          
1 60153U 24120U   26082.20265005 -.00001434  00000+0 -36287-4 0  9995
2 60153  53.1594 257.2556 0001034  97.3164 262.7955 15.30211855 98525
STARLINK-32145          
1 60154U 24120V   26082.17628047 -.00001192  00000+0 -28133-4 0  9993
2 60154  53.1601 257.0916 0001347  96.5745 263.5409 15.30189080 98444
STARLINK-32137          
1 60155U 24120W   26082.19315934 -.00000881  00000+0 -17626-4 0  9993
2 60155  53.1592 257.1966 0001144  78.4262 281.6867 15.30201191 98445
STARLINK-32048          
1 60156U 24120X   26081.86975610 -.00001937  00000+0 -53297-4 0  9997
2 60156  53.1597 258.7341 0001208  83.4046 276.7092 15.30189165 98397
STARLINK-32129          
1 60157U 24120Y   26081.89931074 -.00001987  00000+0 -54998-4 0  9991
2 60157  53.1602 258.9160 0001256  74.7492 285.3648 15.30180397 98477
STARLINK-11168 [DTC]    
1 60183U 24124A   26082.24136155  .00002434  00000+0  24911-4 0  9999
2 60183  53.1598  94.3709 0002207 126.5291 233.5931 15.69754611 99852
STARLINK-11187 [DTC]    
1 60184U 24124B   26082.30015014 -.00004060  00000+0 -28687-4 0  9990
2 60184  53.1578  94.0240 0001426  65.8464 294.2703 15.69691370 98679
STARLINK-11180 [DTC]    
1 60185U 24124C   26081.46756243 -.00015560  00000+0 -12409-3 0  9994
2 60185  53.1572  98.0717 0001026  52.4954 307.6158 15.69656250 98546
STARLINK-11197 [DTC]    
1 60186U 24124D   26082.29035398  .00052331  00000+0  43321-3 0  9990
2 60186  53.1578  93.9583 0001075  91.6895 268.4246 15.69758408 98675
STARLINK-11194 [DTC]    
1 60187U 24124E   26082.22177549  .00018796  00000+0  15958-3 0  9991
2 60187  53.1580  94.2390 0001187  95.0275 265.0879 15.69720805 98667
STARLINK-11189 [DTC]    
1 60188U 24124F   26082.21698337  .00027934  00000+0  23462-3 0  9997
2 60188  53.1575  94.9407 0001148  69.8570 290.2572 15.69712538 98655
